{"version": 0.6, "generator": "Overpass API 0.7.59 e21c39fe", "osm3s": {"timestamp_osm_base": "2022-11-29T23:37:55Z", "copyright": "The data included in this document is from www.openstreetmap.org. The data is made available under ODbL."}, "elements": [{"type": "node", "id": 84960328, "lat": 40.9495285, "lon": -124.1105565}, {"type": "node", "id": 84960330, "lat": 40.950242, "lon": -124.1105237}, {"type": "node", "id": 84960343, "lat": 40.953766, "lon": -124.1104972}, {"type": "node", "id": 84960344, "lat": 40.955043, "lon": -124.1104381}, {"type": "node", "id": 84960348, "lat": 40.9562194, "lon": -124.1104088}, {"type": "node", "id": 85734155, "lat": 40.956212, "lon": -124.1079332}, {"type": "node", "id": 85869538, "lat": 40.9490214, "lon": -124.1104532, "tags": {"highway": "stop"}}, {"type": "node", "id": 85965484, "lat": 40.9562152, "lon": -124.1056055}, {"type": "node", "id": 85965486, "lat": 40.955069, "lon": -124.10558}, {"type": "node", "id": 358818190, "lat": 40.9459595, "lon": -124.1047873, "tags": {"amenity": "place_of_worship", "ele": "40", "gnis:county_id": "023", "gnis:created": "04/26/1996", "gnis:feature_id": "1681980", "gnis:state_id": "06", "name": "Faith Temple Pentecostal Church of God", "religion": "christian"}}, {"type": "node", "id": 358818217, "lat": 40.945404, "lon": -124.1072874, "tags": {"amenity": "place_of_worship", "ele": "37", "gnis:county_id": "023", "gnis:created": "04/26/1996", "gnis:feature_id": "1682004", "gnis:state_id": "06", "name": "McKinleyville Church of Christ", "religion": "christian"}}, {"type": "node", "id": 358818224, "lat": 40.9438091, "lon": -124.101709, "tags": {"addr:city": "McKinleyville", "addr:housenumber": "1561", "addr:postcode": "95519", "addr:state": "CA", "addr:street": "City Center Road", "amenity": "post_office", "brand": "United States Postal Service", "brand:wikidata": "Q668687", "brand:wikipedia": "en:United States Postal Service", "ele": "45", "gnis:county_id": "023", "gnis:created": "04/26/1996", "gnis:feature_id": "1682007", "gnis:state_id": "06", "name": "McKinleyville Post Office", "operator": "United States Postal Service", "operator:type": "public", "operator:wikidata": "Q668687", "operator:wikipedia": "en:United States Postal Service", "phone": "(707) 822-3370", "short_name": "USPS"}}, {"type": "node", "id": 358821864, "lat": 40.929761, "lon": -124.1336218, "tags": {"amenity": "parking", "ele": "3", "gnis:county_id": "023", "gnis:created": "12/02/1996", "gnis:feature_id": "1702461", "gnis:state_id": "06"}}, {"type": "node", "id": 575637006, "lat": 40.9343735, "lon": -124.101227, "tags": {"amenity": "fuel", "brand": "Shell", "brand:wikidata": "Q110716465", "brand:wikipedia": "en:Royal Dutch Shell", "name": "Shell", "operator": "Shell"}}, {"type": "node", "id": 575637007, "lat": 40.9383208, "lon": -124.1005324, "tags": {"amenity": "fast_food", "brand": "Taco Bell", "brand:wikidata": "Q752941", "brand:wikipedia": "en:Taco Bell", "cuisine": "tex-mex", "name": "Taco Bell", "takeaway": "yes"}}, {"type": "node", "id": 721586788, "lat": 40.9317172, "lon": -124.101381, "tags": {"amenity": "restaurant", "brand": "Denny's", "brand:wikidata": "Q1189695", "brand:wikipedia": "en:Denny's", "cuisine": "american", "name": "Denny's", "opening_hours": "24/7"}}, {"type": "node", "id": 721586791, "lat": 40.9340929, "lon": -124.104246}, {"type": "node", "id": 721586794, "lat": 40.9334729, "lon": -124.1011517}, {"type": "node", "id": 721586796, "lat": 40.9324946, "lon": -124.1013098, "tags": {"amenity": "fast_food", "brand": "McDonald's", "brand:wikidata": "Q38076", "brand:wikipedia": "en:McDonald's", "cuisine": "burger", "name": "McDonald's", "takeaway": "yes"}}, {"type": "node", "id": 721586798, "lat": 40.9340937, "lon": -124.1043806}, {"type": "node", "id": 721586800, "lat": 40.9339217, "lon": -124.1011478}, {"type": "node", "id": 721586802, "lat": 40.9318906, "lon": -124.1012011}, {"type": "node", "id": 721586806, "lat": 40.9323274, "lon": -124.101206}, {"type": "node", "id": 721586808, "lat": 40.9331433, "lon": -124.101273, "tags": {"amenity": "pharmacy", "brand": "Rite Aid", "brand:wikidata": "Q3433273", "brand:wikipedia": "en:Rite Aid", "dispensing": "yes", "healthcare": "pharmacy", "name": "Rite Aid"}}, {"type": "node", "id": 721586811, "lat": 40.9334728, "lon": -124.103772}, {"type": "node", "id": 721586813, "lat": 40.9340605, "lon": -124.1025494}, {"type": "node", "id": 721586818, "lat": 40.9349406, "lon": -124.1132694, "tags": {"amenity": "place_of_worship", "denomination": "baptist", "name": "McKinleyville Baptist Church", "religion": "christian"}}, {"type": "node", "id": 721586820, "lat": 40.931351, "lon": -124.1025645}, {"type": "node", "id": 721586822, "lat": 40.9323558, "lon": -124.101439}, {"type": "node", "id": 721586826, "lat": 40.9325456, "lon": -124.1037716}, {"type": "node", "id": 721586829, "lat": 40.9334625, "lon": -124.1015296}, {"type": "node", "id": 721586842, "lat": 40.9330394, "lon": -124.1044812}, {"type": "node", "id": 721586844, "lat": 40.9313467, "lon": -124.1016809}, {"type": "node", "id": 721586845, "lat": 40.9315795, "lon": -124.1015379}, {"type": "node", "id": 795605895, "lat": 40.9334229, "lon": -124.1015289}, {"type": "node", "id": 795605901, "lat": 40.9438521, "lon": -124.1014987, "tags": {"amenity": "fast_food", "brand": "Subway", "brand:wikidata": "Q244457", "brand:wikipedia": "en:Subway (restaurant)", "cuisine": "sandwich", "name": "Subway", "takeaway": "yes"}}, {"type": "node", "id": 795605903, "lat": 40.9340647, "lon": -124.1037965}, {"type": "node", "id": 795605921, "lat": 40.9334755, "lon": -124.1042503}, {"type": "node", "id": 795605922, "lat": 40.9340672, "lon": -124.1042446}, {"type": "node", "id": 795605947, "lat": 40.9334731, "lon": -124.1038022}, {"type": "node", "id": 795605971, "lat": 40.9330502, "lon": -124.1015221}, {"type": "node", "id": 884899213, "lat": 40.9442, "lon": -124.0998127, "tags": {"amenity": "library", "name": "McKinleyville Library"}}, {"type": "node", "id": 884899262, "lat": 40.9437745, "lon": -124.0998287, "tags": {"amenity": "police", "name": "McKinleyville Sheriffs Substation Office"}}, {"type": "node", "id": 1064541235, "lat": 40.9531369, "lon": -124.1098683}, {"type": "node", "id": 1064544773, "lat": 40.9530492, "lon": -124.1097379}, {"type": "node", "id": 1064737981, "lat": 40.9535047, "lon": -124.1101801}, {"type": "node", "id": 1064740239, "lat": 40.952923, "lon": -124.1093902}, {"type": "node", "id": 1776934109, "lat": 40.9260642, "lon": -124.100388, "tags": {"addr:city": "McKinleyville", "addr:housenumber": "1300", "addr:postcode": "95519", "addr:state": "CA", "addr:street": "Central Avenue", "amenity": "pub", "delivery": "no", "microbrewery": "yes", "name": "Six Rivers Brewery", "phone": "(707) 839-7580", "source": "local_knowledge", "website": "https://www.sixriversbrewery.com/"}}, {"type": "node", "id": 2108079331, "lat": 40.9339132, "lon": -124.105282, "tags": {"amenity": "place_of_worship", "name": "Jehova's Witness", "religion": "christian"}}, {"type": "node", "id": 2108084355, "lat": 40.940717, "lon": -124.1100399, "tags": {"addr:city": "McKinleyville", "addr:housenumber": "1951", "addr:postcode": "95519", "addr:state": "CA", "addr:street": "McKinleyville Avenue", "amenity": "place_of_worship", "denomination": "catholic", "name": "Christ the King Church", "phone": "+1 707 839 2911", "religion": "christian"}}, {"type": "node", "id": 2108084532, "lat": 40.9418681, "lon": -124.1071595, "tags": {"amenity": "place_of_worship", "name": "Church", "religion": "christian"}}, {"type": "node", "id": 2189111752, "lat": 40.942164, "lon": -124.1267261, "tags": {"amenity": "parking", "name": "Mad River Bluffs", "parking": "surface"}}, {"type": "node", "id": 2587307563, "lat": 40.9431865, "lon": -124.1028231}, {"type": "node", "id": 2587307565, "lat": 40.9431906, "lon": -124.1011468}, {"type": "node", "id": 2587307566, "lat": 40.9431683, "lon": -124.1026542}, {"type": "node", "id": 2587307567, "lat": 40.9440779, "lon": -124.1034776}, {"type": "node", "id": 2587307570, "lat": 40.943181, "lon": -124.1026169}, {"type": "node", "id": 2587307571, "lat": 40.9431926, "lon": -124.103035}, {"type": "node", "id": 2587307572, "lat": 40.9436944, "lon": -124.1022754}, {"type": "node", "id": 2587307573, "lat": 40.9434404, "lon": -124.1016432}, {"type": "node", "id": 2587307574, "lat": 40.9433188, "lon": -124.1027912}, {"type": "node", "id": 2587307575, "lat": 40.9437422, "lon": -124.1014233}, {"type": "node", "id": 2587307576, "lat": 40.9437767, "lon": -124.1012114}, {"type": "node", "id": 2587307577, "lat": 40.9431993, "lon": -124.1027993}, {"type": "node", "id": 2587307580, "lat": 40.9432108, "lon": -124.1034266}, {"type": "node", "id": 2587307585, "lat": 40.9437544, "lon": -124.1022789}, {"type": "node", "id": 2587307587, "lat": 40.9432351, "lon": -124.1034776}, {"type": "node", "id": 2587307589, "lat": 40.9440563, "lon": -124.1035101}, {"type": "node", "id": 2587307593, "lat": 40.9437321, "lon": -124.1024479}, {"type": "node", "id": 2587307595, "lat": 40.9431932, "lon": -124.1016486}, {"type": "node", "id": 2587307599, "lat": 40.9431845, "lon": -124.1034052}, {"type": "node", "id": 2587307601, "lat": 40.9441636, "lon": -124.1017344}, {"type": "node", "id": 2587307608, "lat": 40.9433208, "lon": -124.1034537}, {"type": "node", "id": 2587307609, "lat": 40.9436964, "lon": -124.1024498}, {"type": "node", "id": 2587307610, "lat": 40.9441008, "lon": -124.1033357}, {"type": "node", "id": 2587307614, "lat": 40.9442244, "lon": -124.1011336}, {"type": "node", "id": 2587307615, "lat": 40.9437564, "lon": -124.1017076}, {"type": "node", "id": 2587307616, "lat": 40.9431972, "lon": -124.1033625}, {"type": "node", "id": 2587307617, "lat": 40.9437848, "lon": -124.1014099}, {"type": "node", "id": 2587307621, "lat": 40.944113, "lon": -124.1023111}, {"type": "node", "id": 2587307623, "lat": 40.9434262, "lon": -124.1012221}, {"type": "node", "id": 2587307629, "lat": 40.9437301, "lon": -124.1027778}, {"type": "node", "id": 2919692636, "lat": 40.942438, "lon": -124.1195494}, {"type": "node", "id": 2919692637, "lat": 40.9424445, "lon": -124.1201054}, {"type": "node", "id": 2919692647, "lat": 40.9431541, "lon": -124.1195365}, {"type": "node", "id": 2919692650, "lat": 40.9432388, "lon": -124.1196874}, {"type": "node", "id": 2919692652, "lat": 40.9432551, "lon": -124.1200795}, {"type": "node", "id": 2921919643, "lat": 40.9435088, "lon": -124.1205649}, {"type": "node", "id": 2921919644, "lat": 40.9435518, "lon": -124.1206193}, {"type": "node", "id": 2921919645, "lat": 40.9435763, "lon": -124.1204715}, {"type": "node", "id": 2921919646, "lat": 40.9436193, "lon": -124.120526}, {"type": "node", "id": 2924021460, "lat": 40.9422637, "lon": -124.1014266}, {"type": "node", "id": 2924021461, "lat": 40.9422652, "lon": -124.1017281}, {"type": "node", "id": 2924021462, "lat": 40.9423628, "lon": -124.1014036}, {"type": "node", "id": 2924021463, "lat": 40.9423629, "lon": -124.1014257}, {"type": "node", "id": 2924021464, "lat": 40.9423673, "lon": -124.1017272}, {"type": "node", "id": 2924021465, "lat": 40.9423675, "lon": -124.1017588}, {"type": "node", "id": 2924021466, "lat": 40.9424454, "lon": -124.1014029}, {"type": "node", "id": 2924021467, "lat": 40.9424472, "lon": -124.1017581}, {"type": "node", "id": 2990325990, "lat": 40.9562178, "lon": -124.1098748}, {"type": "node", "id": 2990333094, "lat": 40.9454587, "lon": -124.0975792}, {"type": "node", "id": 2990333095, "lat": 40.9454962, "lon": -124.1008007}, {"type": "node", "id": 2990371571, "lat": 40.9467161, "lon": -124.1005845}, {"type": "node", "id": 2990371572, "lat": 40.9467166, "lon": -124.1008752}, {"type": "node", "id": 2990371573, "lat": 40.9467179, "lon": -124.0975924}, {"type": "node", "id": 2990371579, "lat": 40.946748, "lon": -124.1003269}, {"type": "node", "id": 2990371588, "lat": 40.9468399, "lon": -124.1000038}, {"type": "node", "id": 2990371593, "lat": 40.9469584, "lon": -124.0995848}, {"type": "node", "id": 2990371595, "lat": 40.9470397, "lon": -124.0993436}, {"type": "node", "id": 2990371601, "lat": 40.9472449, "lon": -124.098859}, {"type": "node", "id": 2990371609, "lat": 40.9477064, "lon": -124.0979928}, {"type": "node", "id": 2990371610, "lat": 40.9477913, "lon": -124.097768}, {"type": "node", "id": 2990371613, "lat": 40.947839, "lon": -124.0976018}, {"type": "node", "id": 2990371623, "lat": 40.9490149, "lon": -124.1105842}, {"type": "node", "id": 2990371626, "lat": 40.9490263, "lon": -124.1083379}, {"type": "node", "id": 3793533810, "lat": 40.9363078, "lon": -124.1005419, "tags": {"addr:city": "McKinleyville", "addr:housenumber": "1701", "addr:postcode": "95519", "addr:state": "CA", "addr:street": "Central Avenue", "amenity": "restaurant", "cuisine": "mexican", "delivery": "no", "name": "Carmela's Mexican Restaurant", "opening_hours": "MO-SU 11:00-21:00", "phone": "707) 839-2435", "website": "www.carmelasrestaurants.com"}}, {"type": "node", "id": 3793533811, "lat": 40.9363457, "lon": -124.1015683, "tags": {"addr:city": "McKinleyville", "addr:housenumber": "1720", "addr:postcode": "95519", "addr:state": "CA", "addr:street": "Central Avenue", "amenity": "pharmacy", "brand": "CVS Pharmacy", "brand:wikidata": "Q2078880", "brand:wikipedia": "en:CVS Pharmacy", "healthcare": "pharmacy", "name": "CVS Pharmacy", "opening_hours": "Mo-Su 7:00-22:00", "phone": "(707) 839-5261", "short_name": "CVS"}}, {"type": "node", "id": 3793533814, "lat": 40.9427985, "lon": -124.1013908, "tags": {"addr:city": "McKinleyville", "addr:housenumber": "1552", "addr:postcode": "95519", "addr:state": "CA", "addr:street": "City Center Road", "amenity": "restaurant", "cuisine": "sushi", "delivery": "no", "name": "Sushi Spot", "opening_hours": "Mo-Su 16:00-21:00", "phone": "707) 839-1222", "reservation": "no", "takeaway": "yes", "website": "https://www.sushispotarcata.com/"}}, {"type": "node", "id": 3793533818, "lat": 40.9412968, "lon": -124.1112797, "tags": {"addr:city": "McKinleyville", "addr:housenumber": "1170", "addr:postcode": "95519", "addr:state": "CA", "addr:street": "Hiller Road", "amenity": "place_of_worship", "name": "Church of the Light", "phone": "(707) 839-4331", "religion": "christian"}}, {"type": "node", "id": 3793533820, "lat": 40.9418049, "lon": -124.1012871, "tags": {"addr:city": "McKinleyville", "addr:housenumber": "1980", "addr:postcode": "95519", "addr:state": "CA", "addr:street": "Central Avenue", "amenity": "fuel", "brand": "76", "brand:wikidata": "Q1658320", "brand:wikipedia": "en:76 (gas station)", "name": "76", "phone": "(707) 839-2972"}}, {"type": "node", "id": 3793533821, "lat": 40.9412616, "lon": -124.1015454, "tags": {"addr:city": "Mckinleyville", "addr:housenumber": "1968", "addr:postcode": "95519", "addr:state": "CA", "addr:street": "Central Avenue", "amenity": "bank", "atm": "yes", "name": "Coast Central Credit Union", "opening_hours": "Mo-Th 9:30-17:30, Fr 9:30-18:00", "phone": "(707) 445-8801", "website": "http://coastccu.org"}}, {"type": "node", "id": 3793533822, "lat": 40.940408, "lon": -124.1014082, "tags": {"addr:city": "McKinleyville", "addr:housenumber": "1924", "addr:postcode": "95519", "addr:state": "CA", "addr:street": "Central Avenue", "amenity": "cafe", "brand": "Starbucks", "brand:wikidata": "Q37158", "brand:wikipedia": "en:Starbucks", "cuisine": "coffee_shop", "internet_access": "wlan", "name": "Starbucks", "official_name": "Starbucks Coffee", "opening_hours": "Mo-Sa 5:00-21:00; Su 5:30-21:00", "phone": "(707) 840-0253", "takeaway": "yes"}}, {"type": "node", "id": 3793533823, "lat": 40.9400642, "lon": -124.1013753, "tags": {"addr:city": "McKinleyville", "addr:housenumber": "1645", "addr:postcode": "95519", "addr:state": "CA", "addr:street": "Heartwood Drive", "amenity": "fast_food", "brand": "Burger King", "brand:wikidata": "Q177054", "brand:wikipedia": "en:Burger King", "cuisine": "burger", "delivery": "no", "drive_through": "yes", "name": "Burger King", "opening_hours": "Mo-Sa 6:00-24:00; Su 7:00-24:00", "phone": "(707) 839-9299", "takeaway": "yes"}}, {"type": "node", "id": 3882954525, "lat": 40.9507087, "lon": -124.110517}, {"type": "node", "id": 3882954526, "lat": 40.9507208, "lon": -124.107812}, {"type": "node", "id": 3882954527, "lat": 40.9490291, "lon": -124.1078094}, {"type": "node", "id": 3882960912, "lat": 40.9542416, "lon": -124.1056716}, {"type": "node", "id": 3882960913, "lat": 40.9534394, "lon": -124.1057253}, {"type": "node", "id": 3882960914, "lat": 40.9527831, "lon": -124.105736}, {"type": "node", "id": 3882960915, "lat": 40.9525805, "lon": -124.1058433}, {"type": "node", "id": 3882960916, "lat": 40.9526372, "lon": -124.1071308}, {"type": "node", "id": 3882960917, "lat": 40.9527101, "lon": -124.1075492}, {"type": "node", "id": 3882960918, "lat": 40.9528884, "lon": -124.1080964}, {"type": "node", "id": 3882960919, "lat": 40.952937, "lon": -124.1087294}, {"type": "node", "id": 3966746131, "lat": 40.9356449, "lon": -124.1005953, "tags": {"amenity": "fuel", "brand": "Chevron", "brand:wikidata": "Q319642", "brand:wikipedia": "en:Chevron Corporation", "name": "Chevron"}}, {"type": "node", "id": 3988826543, "lat": 40.9407393, "lon": -124.1012966}, {"type": "node", "id": 3988826544, "lat": 40.9407393, "lon": -124.1018472}, {"type": "node", "id": 3988826545, "lat": 40.9409162, "lon": -124.1012919}, {"type": "node", "id": 3988826546, "lat": 40.9409197, "lon": -124.1018449}, {"type": "node", "id": 4772053453, "lat": 40.9256988, "lon": -124.1003861}, {"type": "node", "id": 4772053454, "lat": 40.9256907, "lon": -124.0998685}, {"type": "node", "id": 4772053455, "lat": 40.9258164, "lon": -124.0997934}, {"type": "node", "id": 4772053456, "lat": 40.9261528, "lon": -124.0998416}, {"type": "node", "id": 4772053457, "lat": 40.9263392, "lon": -124.100126}, {"type": "node", "id": 4772053458, "lat": 40.9264993, "lon": -124.1001367}, {"type": "node", "id": 4772053459, "lat": 40.9264912, "lon": -124.1005068}, {"type": "node", "id": 4772053460, "lat": 40.9267405, "lon": -124.1004934}, {"type": "node", "id": 4772053461, "lat": 40.9267526, "lon": -124.1006222}, {"type": "node", "id": 4772053462, "lat": 40.9266999, "lon": -124.1006544}, {"type": "node", "id": 4772053463, "lat": 40.9264608, "lon": -124.1006356}, {"type": "node", "id": 4772053464, "lat": 40.9261568, "lon": -124.1006275}, {"type": "node", "id": 4772053465, "lat": 40.9260616, "lon": -124.1006141}, {"type": "node", "id": 4772053466, "lat": 40.9260129, "lon": -124.1005551}, {"type": "node", "id": 4772053467, "lat": 40.9259825, "lon": -124.1005149}, {"type": "node", "id": 5018268489, "lat": 40.9327915, "lon": -124.1044068}, {"type": "node", "id": 5018268490, "lat": 40.932548, "lon": -124.1043608}, {"type": "node", "id": 5018277809, "lat": 40.9325744, "lon": -124.1037908, "tags": {"amenity": "bicycle_parking", "bicycle_parking": "stands", "covered": "no", "fee": "no", "name": "Chah-GAH-Cho Trail bike rack"}}, {"type": "node", "id": 7090599276, "lat": 40.9340332, "lon": -124.1012433}, {"type": "node", "id": 7090599277, "lat": 40.9340291, "lon": -124.1017047}, {"type": "node", "id": 7090599278, "lat": 40.9340626, "lon": -124.1017851}, {"type": "node", "id": 7090599279, "lat": 40.9327688, "lon": -124.1014244}, {"type": "node", "id": 7090599280, "lat": 40.9327678, "lon": -124.1015169}, {"type": "node", "id": 7090599281, "lat": 40.931558, "lon": -124.1016255}, {"type": "node", "id": 7090599282, "lat": 40.9318964, "lon": -124.1014659}, {"type": "node", "id": 7090599283, "lat": 40.9326948, "lon": -124.1025254}, {"type": "node", "id": 7100538886, "lat": 40.9340842, "lon": -124.1044135}, {"type": "node", "id": 7100538887, "lat": 40.9340633, "lon": -124.1044406}, {"type": "node", "id": 7100538888, "lat": 40.9340387, "lon": -124.1044623}, {"type": "node", "id": 7100538889, "lat": 40.9329884, "lon": -124.1044681}, {"type": "node", "id": 7100538890, "lat": 40.9329487, "lon": -124.1044428}, {"type": "node", "id": 7100538891, "lat": 40.9329046, "lon": -124.1044248}, {"type": "node", "id": 7100538892, "lat": 40.9328541, "lon": -124.1044131}, {"type": "node", "id": 7100538893, "lat": 40.9326657, "lon": -124.1043864}, {"type": "node", "id": 7478147804, "lat": 40.9439538, "lon": -124.1006698}, {"type": "node", "id": 7478147805, "lat": 40.9439559, "lon": -124.1005011}, {"type": "node", "id": 7478147806, "lat": 40.9437729, "lon": -124.1004971}, {"type": "node", "id": 7478147807, "lat": 40.9437702, "lon": -124.1007155}, {"type": "node", "id": 7478147808, "lat": 40.9438428, "lon": -124.100717}, {"type": "node", "id": 7478147809, "lat": 40.9438435, "lon": -124.1006674}, {"type": "node", "id": 8095993650, "lat": 40.9558905, "lon": -124.110417}, {"type": "node", "id": 8095993662, "lat": 40.9547582, "lon": -124.1104513}, {"type": "node", "id": 8097214682, "lat": 40.9562124, "lon": -124.1076706}, {"type": "node", "id": 8123196858, "lat": 40.9543659, "lon": -124.1012145, "tags": {"addr:city": "McKinleyville", "addr:housenumber": "2698", "addr:postcode": "95519", "addr:state": "CA", "addr:street": "Central Avenue", "amenity": "fuel", "brand": "76", "brand:wikidata": "Q1658320", "brand:wikipedia": "en:76 (gas station)", "name": "76", "phone": "(707) 839-2661", "website": "https://www.76.com/station/U76-MCKINLEYVILLE-MINI-MART-0000808405?refer=psx_76"}}, {"type": "node", "id": 8123196863, "lat": 40.9544559, "lon": -124.1013148, "tags": {"amenity": "atm"}}, {"type": "node", "id": 8359324727, "lat": 40.9428922, "lon": -124.103278, "tags": {"amenity": "charging_station", "brand": "ChargePoint", "brand:wikidata": "Q5176149", "brand:wikipedia": "en:ChargePoint", "capacity": "2", "fee": "yes", "name": "ChargePoint", "opening_hours": "24/7", "operator": "ChargePoint", "operator:wikidata": "Q5176149", "operator:wikipedia": "en:ChargePoint", "socket:type1": "2"}}, {"type": "node", "id": 9234679789, "lat": 40.9433086, "lon": -124.0982511, "tags": {"access": "yes", "amenity": "toilets"}}, {"type": "node", "id": 9262033187, "lat": 40.9345435, "lon": -124.1019732, "tags": {"amenity": "veterinary", "name": "Redwood Animal Hospital"}}, {"type": "node", "id": 9485402318, "lat": 40.9496898, "lon": -124.1105485}, {"type": "node", "id": 9485402326, "lat": 40.9494295, "lon": -124.1105618}, {"type": "node", "id": 9485402327, "lat": 40.9504717, "lon": -124.1105204}, {"type": "node", "id": 9485402333, "lat": 40.9490216, "lon": -124.1103655}, {"type": "node", "id": 9485402335, "lat": 40.9490222, "lon": -124.1101066}, {"type": "node", "id": 9485402337, "lat": 40.9490228, "lon": -124.109848}, {"type": "node", "id": 9485402341, "lat": 40.9490233, "lon": -124.1096258}, {"type": "node", "id": 9630399801, "lat": 40.9469471, "lon": -124.1015185}, {"type": "node", "id": 9630399802, "lat": 40.9467967, "lon": -124.1015171}, {"type": "node", "id": 9630399803, "lat": 40.9466772, "lon": -124.1015064}, {"type": "node", "id": 9630399804, "lat": 40.9466711, "lon": -124.1013589}, {"type": "node", "id": 9630399805, "lat": 40.9468408, "lon": -124.1013723}, {"type": "node", "id": 9630399806, "lat": 40.9468423, "lon": -124.1011543}, {"type": "node", "id": 9630399807, "lat": 40.9469461, "lon": -124.101157}, {"type": "node", "id": 10038519351, "lat": 40.944444, "lon": -124.1007839}, {"type": "node", "id": 10038519352, "lat": 40.9444792, "lon": -124.1005495}, {"type": "node", "id": 10038519353, "lat": 40.9444894, "lon": -124.1004083}, {"type": "node", "id": 10038519354, "lat": 40.9445076, "lon": -124.1000957}, {"type": "node", "id": 10038519355, "lat": 40.9445065, "lon": -124.0997877}, {"type": "node", "id": 10038519356, "lat": 40.9445848, "lon": -124.0998058}, {"type": "node", "id": 10038519357, "lat": 40.9445836, "lon": -124.1002956}, {"type": "node", "id": 10038519358, "lat": 40.9447414, "lon": -124.1002926}, {"type": "node", "id": 10038519359, "lat": 40.9447414, "lon": -124.100228}, {"type": "node", "id": 10038519360, "lat": 40.9450353, "lon": -124.100228}, {"type": "node", "id": 10038519361, "lat": 40.9450342, "lon": -124.1002926}, {"type": "node", "id": 10038519362, "lat": 40.9451114, "lon": -124.1002941}, {"type": "node", "id": 10038519363, "lat": 40.9451125, "lon": -124.1002385}, {"type": "node", "id": 10038519364, "lat": 40.9453225, "lon": -124.100225}, {"type": "node", "id": 10038519365, "lat": 40.9453202, "lon": -124.100273}, {"type": "node", "id": 10038519366, "lat": 40.9454439, "lon": -124.1002625}, {"type": "node", "id": 10038519367, "lat": 40.9454519, "lon": -124.1007674}, {"type": "node", "id": 10038519548, "lat": 40.9426012, "lon": -124.1004779, "tags": {"amenity": "restaurant", "brand": "Round Table Pizza", "brand:wikidata": "Q7371139", "cuisine": "pizza", "name": "Round Table Pizza"}}, {"type": "node", "id": 10038519549, "lat": 40.9422335, "lon": -124.1005123, "tags": {"amenity": "fast_food", "brand": "Papa Murphy's", "brand:wikidata": "Q7132349", "cuisine": "pizza", "name": "Papa Murphy's", "official_name": "Papa Murphy's Take 'N' Bake Pizza", "takeaway": "only"}}, {"type": "node", "id": 10038519550, "lat": 40.9414762, "lon": -124.1004514, "tags": {"amenity": "fast_food", "brand": "Little Caesars", "brand:wikidata": "Q1393809", "cuisine": "pizza", "name": "Little Caesars", "takeaway": "yes"}}, {"type": "node", "id": 10038609820, "lat": 40.9415899, "lon": -124.1007553}, {"type": "node", "id": 10038609821, "lat": 40.9410993, "lon": -124.1007617}, {"type": "node", "id": 10038609822, "lat": 40.9410979, "lon": -124.1005683}, {"type": "node", "id": 10038609823, "lat": 40.9412956, "lon": -124.1005657}, {"type": "node", "id": 10038609824, "lat": 40.9412954, "lon": -124.1005445}, {"type": "node", "id": 10038609825, "lat": 40.9415883, "lon": -124.1005407}, {"type": "node", "id": 10038609901, "lat": 40.9340674, "lon": -124.1006686}, {"type": "node", "id": 10038609902, "lat": 40.9336081, "lon": -124.1006686}, {"type": "node", "id": 10038609903, "lat": 40.9336012, "lon": -124.1004538}, {"type": "node", "id": 10038609904, "lat": 40.9337267, "lon": -124.1004522}, {"type": "node", "id": 10038609905, "lat": 40.933729, "lon": -124.1005101}, {"type": "node", "id": 10038609906, "lat": 40.9339914, "lon": -124.1005178}, {"type": "node", "id": 10038609907, "lat": 40.9339937, "lon": -124.1004568}, {"type": "node", "id": 10038609908, "lat": 40.9340915, "lon": -124.1004538}, {"type": "node", "id": 10038609936, "lat": 40.9354997, "lon": -124.0991037}, {"type": "node", "id": 10038609937, "lat": 40.9354997, "lon": -124.0982367}, {"type": "node", "id": 10038609938, "lat": 40.9356217, "lon": -124.0982402}, {"type": "node", "id": 10038609939, "lat": 40.9356204, "lon": -124.0984912}, {"type": "node", "id": 10038609940, "lat": 40.9359253, "lon": -124.0984824}, {"type": "node", "id": 10038609941, "lat": 40.9359399, "lon": -124.0987246}, {"type": "node", "id": 10038609942, "lat": 40.9356654, "lon": -124.0987228}, {"type": "node", "id": 10038609943, "lat": 40.9356694, "lon": -124.0991107}, {"type": "node", "id": 10038609944, "lat": 40.9352584, "lon": -124.0988141}, {"type": "node", "id": 10038609945, "lat": 40.9350995, "lon": -124.0988112}, {"type": "node", "id": 10038609946, "lat": 40.935101, "lon": -124.0990673}, {"type": "node", "id": 10038609947, "lat": 40.9351605, "lon": -124.0990663}, {"type": "node", "id": 10038609948, "lat": 40.935159, "lon": -124.0991162}, {"type": "node", "id": 10038609949, "lat": 40.9352705, "lon": -124.0991092}, {"type": "node", "id": 10038609950, "lat": 40.9352712, "lon": -124.0989686}, {"type": "node", "id": 10038609951, "lat": 40.9352554, "lon": -124.0989696}, {"type": "node", "id": 10038609965, "lat": 40.9370946, "lon": -124.103002}, {"type": "node", "id": 10038609966, "lat": 40.9364403, "lon": -124.1030137}, {"type": "node", "id": 10038609967, "lat": 40.9364368, "lon": -124.1023826}, {"type": "node", "id": 10038609968, "lat": 40.9366267, "lon": -124.102371}, {"type": "node", "id": 10038609969, "lat": 40.936632, "lon": -124.102208}, {"type": "node", "id": 10038609970, "lat": 40.9370894, "lon": -124.1022033}, {"type": "node", "id": 10038609971, "lat": 40.9368591, "lon": -124.1011979}, {"type": "node", "id": 10038609972, "lat": 40.9368541, "lon": -124.1017454}, {"type": "node", "id": 10038609973, "lat": 40.9365164, "lon": -124.1017177}, {"type": "node", "id": 10038609974, "lat": 40.9365104, "lon": -124.1012838}, {"type": "node", "id": 10038609975, "lat": 40.9364204, "lon": -124.1012772}, {"type": "node", "id": 10038609976, "lat": 40.9364224, "lon": -124.1013354}, {"type": "node", "id": 10038609977, "lat": 40.9362026, "lon": -124.1013301}, {"type": "node", "id": 10038609978, "lat": 40.9362086, "lon": -124.1011304}, {"type": "node", "id": 10038609979, "lat": 40.9366552, "lon": -124.1011357}, {"type": "node", "id": 10038609980, "lat": 40.9366542, "lon": -124.101186}, {"type": "node", "id": 10038609983, "lat": 40.9408905, "lon": -124.1005735, "tags": {"amenity": "dentist", "healthcare": "dentist"}}, {"type": "node", "id": 10061903080, "lat": 40.949084, "lon": -124.1104326}, {"type": "node", "id": 10061903081, "lat": 40.9497437, "lon": -124.1103465}, {"type": "node", "id": 10061903082, "lat": 40.9503558, "lon": -124.1103364}, {"type": "node", "id": 10061903083, "lat": 40.9503565, "lon": -124.1104036}, {"type": "node", "id": 10061903084, "lat": 40.9497444, "lon": -124.1104138}, {"type": "node", "id": 10061903085, "lat": 40.949448, "lon": -124.1101712}, {"type": "node", "id": 10061903086, "lat": 40.9496142, "lon": -124.1101698}, {"type": "node", "id": 10061903087, "lat": 40.9496208, "lon": -124.1104567}, {"type": "node", "id": 10061903088, "lat": 40.9494496, "lon": -124.1104661}, {"type": "node", "id": 10061903089, "lat": 40.9493716, "lon": -124.1099633}, {"type": "node", "id": 10061903090, "lat": 40.9494125, "lon": -124.1099632}, {"type": "node", "id": 10061903091, "lat": 40.9494115, "lon": -124.1094953}, {"type": "node", "id": 10061903092, "lat": 40.9493737, "lon": -124.1104664}, {"type": "node", "id": 10061903093, "lat": 40.9491194, "lon": -124.1104849}, {"type": "node", "id": 10061903094, "lat": 40.949084, "lon": -124.1094965}, {"type": "way", "id": 58169453, "nodes": [721586798, 721586791, 795605921, 721586811, 721586826, 5018268490, 7100538893, 5018268489, 7100538892, 7100538891, 7100538890, 7100538889, 721586842, 7100538888, 7100538887, 7100538886, 721586798], "tags": {"access": "permissive", "amenity": "parking", "fee": "no", "parking": "surface", "surface": "asphalt"}}, {"type": "way", "id": 58169454, "nodes": [721586813, 7090599278, 7090599277, 7090599276, 721586800, 721586794, 721586829, 795605895, 795605971, 7090599280, 7090599279, 721586822, 721586806, 721586802, 7090599282, 721586845, 7090599281, 721586844, 721586820, 7090599283, 721586813], "tags": {"amenity": "parking", "parking": "surface", "surface": "asphalt"}}, {"type": "way", "id": 64932164, "nodes": [795605947, 795605903, 795605922, 795605921, 795605947], "tags": {"addr:city": "McKinleyville", "addr:housenumber": "1575", "addr:postcode": "95519", "addr:state": "CA", "addr:street": "Betty Court", "amenity": "cinema", "building": "yes", "building:levels": "8", "name": "Mill Creek Cinema", "wikidata": "Q44871198"}}, {"type": "way", "id": 252695692, "nodes": [2587307599, 2587307580, 2587307587, 2587307589, 2587307567, 2587307610, 2587307621, 2587307601, 2587307614, 2587307565, 2587307566, 2587307563, 2587307571, 2587307599], "tags": {"landuse": "retail"}}, {"type": "way", "id": 252695698, "nodes": [2587307629, 2587307593, 2587307609, 2587307572, 2587307585, 2587307615, 2587307575, 2587307617, 2587307576, 2587307623, 2587307573, 2587307595, 2587307570, 2587307577, 2587307616, 2587307608, 2587307574, 2587307629], "tags": {"access": "customers", "amenity": "parking", "parking": "surface"}}, {"type": "way", "id": 288402339, "nodes": [2919692652, 2919692650, 2919692647, 2919692636, 2919692637, 2919692652], "tags": {"access": "yes", "amenity": "parking", "fee": "no", "name": "Hiller Park", "parking": "surface", "surface": "asphalt"}}, {"type": "way", "id": 288643983, "nodes": [2921919646, 2921919645, 2921919643, 2921919644, 2921919646], "tags": {"access": "yes", "amenity": "toilets", "building": "toilets"}}, {"type": "way", "id": 288848573, "nodes": [2924021467, 2924021465, 2924021464, 2924021461, 2924021460, 2924021463, 2924021462, 2924021466, 2924021467], "tags": {"amenity": "bank", "building": "commercial", "name": "Bank of America (Closed)", "operator": "Bank of America"}}, {"type": "way", "id": 295324170, "nodes": [2990371572, 2990333095, 2990333094, 2990371573, 2990371613, 2990371610, 2990371609, 2990371601, 2990371595, 2990371593, 2990371588, 2990371579, 2990371571, 2990371572], "tags": {"amenity": "school", "ele": "44", "gnis:county_id": "023", "gnis:created": "04/26/1996", "gnis:feature_id": "1682005", "gnis:state_id": "06", "name": "McKinleyville Middle School"}}, {"type": "way", "id": 384942109, "nodes": [84960348, 2990325990, 85734155, 8097214682, 85965484, 85965486, 3882960912, 3882960913, 3882960914, 3882960915, 3882960916, 3882960917, 3882960918, 3882960919, 1064740239, 1064544773, 1064541235, 1064737981, 84960343, 8095993662, 84960344, 8095993650, 84960348], "tags": {"amenity": "school", "ele": "33", "gnis:county_id": "023", "gnis:created": "04/26/1996", "gnis:feature_id": "1682006", "gnis:state_id": "06", "name": "McKinleyville High School"}}, {"type": "way", "id": 384942115, "nodes": [3882954525, 3882954526, 3882954527, 2990371626, 9485402341, 9485402337, 9485402335, 9485402333, 85869538, 2990371623, 9485402326, 84960328, 9485402318, 84960330, 9485402327, 3882954525], "tags": {"amenity": "school", "ele": "35", "gnis:county_id": "023", "gnis:created": "06/14/2000", "gnis:feature_id": "229077", "gnis:state_id": "06", "name": "Morris Elementary School"}}, {"type": "way", "id": 396084755, "nodes": [3988826544, 3988826546, 3988826545, 3988826543, 3988826544], "tags": {"addr:city": "Mckinleyville", "addr:housenumber": "1944", "addr:postcode": "95519", "addr:state": "CA", "addr:street": "Central Avenue", "amenity": "place_of_worship", "building": "yes", "denomination": "methodist", "name": "Church of the Joyful Healer", "phone": "+1 707-839-5691", "religion": "christian", "website": "http://www.umc-joyfulhealer.org/"}}, {"type": "way", "id": 484453953, "nodes": [4772053453, 4772053454, 4772053455, 4772053456, 4772053457, 4772053458, 4772053459, 4772053460, 4772053461, 4772053462, 4772053463, 4772053464, 4772053465, 4772053466, 4772053467, 4772053453], "tags": {"amenity": "parking"}}, {"type": "way", "id": 799581059, "nodes": [7478147804, 7478147805, 7478147806, 7478147807, 7478147808, 7478147809, 7478147804], "tags": {"addr:city": "McKinleyville", "addr:housenumber": "2149", "addr:postcode": "95519", "addr:state": "CA", "addr:street": "Central Avenue", "amenity": "fire_station", "building": "yes", "name": "McKinleyville Fire Station", "operator": "Arcata Fire Department"}}, {"type": "way", "id": 1047307509, "nodes": [9630399801, 9630399802, 9630399803, 9630399804, 9630399805, 9630399806, 9630399807, 9630399801], "tags": {"amenity": "parking"}}, {"type": "way", "id": 1096181813, "nodes": [10038519351, 10038519352, 10038519353, 10038519354, 10038519355, 10038519356, 10038519357, 10038519358, 10038519359, 10038519360, 10038519361, 10038519362, 10038519363, 10038519364, 10038519365, 10038519366, 10038519367, 10038519351], "tags": {"access": "customers", "amenity": "parking", "parking": "surface"}}, {"type": "way", "id": 1096194062, "nodes": [10038609820, 10038609821, 10038609822, 10038609823, 10038609824, 10038609825, 10038609820], "tags": {"access": "customers", "amenity": "parking", "parking": "surface"}}, {"type": "way", "id": 1096194065, "nodes": [10038609901, 10038609902, 10038609903, 10038609904, 10038609905, 10038609906, 10038609907, 10038609908, 10038609901], "tags": {"access": "customers", "amenity": "parking", "parking": "surface"}}, {"type": "way", "id": 1096194068, "nodes": [10038609936, 10038609937, 10038609938, 10038609939, 10038609940, 10038609941, 10038609942, 10038609943, 10038609936], "tags": {"amenity": "parking", "parking": "surface"}}, {"type": "way", "id": 1096194069, "nodes": [10038609944, 10038609945, 10038609946, 10038609947, 10038609948, 10038609949, 10038609950, 10038609951, 10038609944], "tags": {"amenity": "parking", "parking": "surface"}}, {"type": "way", "id": 1096194083, "nodes": [10038609965, 10038609966, 10038609967, 10038609968, 10038609969, 10038609970, 10038609965], "tags": {"amenity": "parking"}}, {"type": "way", "id": 1096194084, "nodes": [10038609971, 10038609972, 10038609973, 10038609974, 10038609975, 10038609976, 10038609977, 10038609978, 10038609979, 10038609980, 10038609971], "tags": {"access": "customers", "amenity": "parking", "fee": "no", "parking": "surface"}}, {"type": "way", "id": 1098910372, "nodes": [10061903084, 10061903083, 10061903082, 10061903081, 10061903084], "tags": {"amenity": "parking", "building": "yes"}}, {"type": "way", "id": 1098910373, "nodes": [10061903088, 10061903087, 10061903086, 10061903085, 10061903088], "tags": {"amenity": "parking"}}, {"type": "way", "id": 1098910374, "nodes": [10061903094, 10061903080, 10061903093, 10061903092, 10061903089, 10061903090, 10061903091, 10061903094], "tags": {"amenity": "parking"}}]}